ONEWEB-0229             
1 48779U 21045N   25169.43165821  .00000115  00000+0  27202-3 0  9992
2 48779  87.9048 331.7052 0001838 100.6657 259.4680 13.15547872196585
ONEWEB-0228             
1 48780U 21045P   25169.46507985  .00000030  00000+0  46334-4 0  9992
2 48780  87.9050 331.6741 0001895  99.7632 260.3712 13.15548522196500
ONEWEB-0232             
1 48781U 21045Q   25169.43959411  .00000195  00000+0  48463-3 0  9991
2 48781  87.9040 331.6754 0001863  96.3564 263.7779 13.15548043196829
ONEWEB-0231             
1 48782U 21045R   25169.41739496 -.00000011  00000+0 -62070-4 0  9999
2 48782  87.9036 331.7351 0001932 104.3027 255.8318 13.15546817196514
ONEWEB-0234             
1 48783U 21045S   25169.44128892  .00000229  00000+0  57955-3 0  9999
2 48783  87.9041 331.6887 0002393  72.1801 287.9590 13.15028667196659
ONEWEB-0238             
1 48784U 21045T   25169.46325276 -.00000060  00000+0 -19167-3 0  9995
2 48784  87.9040 331.6944 0002046  87.8616 272.2749 13.16065246197687
ONEWEB-0240             
1 48785U 21045U   25169.47681982 -.00000077  00000+0 -23885-3 0  9996
2 48785  87.9047 331.6649 0002195  98.7138 261.4241 13.15547201196582
ONEWEB-0246             
1 48786U 21045V   25169.47127256 -.00000038  00000+0 -13587-3 0  9991
2 48786  87.9051 331.6765 0001777  99.7855 260.3476 13.15547457196456
